[{"OBJECT_NAME":"BRITE-CA1 (TORONTO)","OBJECT_ID":"2014-033L","EPOCH":"2026-03-09T21:37:14.244384","MEAN_MOTION":14.72464239,"ECCENTRICITY":0.00779067,"INCLINATION":97.9564,"RA_OF_ASC_NODE":199.7641,"ARG_OF_PERICENTER":234.2245,"MEAN_ANOMALY":125.1703,"EPHEMERIS_TYPE":0,"CLASSIFICATION_TYPE":"U","NORAD_CAT_ID":40020,"ELEMENT_SET_NO":999,"REV_AT_EPOCH":62760,"BSTAR":0.00026709929,"MEAN_MOTION_DOT":1.723e-5,"MEAN_MOTION_DDOT":0},{"OBJECT_NAME":"CZ-4C R\/B","OBJECT_ID":"2021-131C","EPOCH":"2026-03-09T23:10:00.451200","MEAN_MOTION":14.67704563,"ECCENTRICITY":0.01086317,"INCLINATION":98.7279,"RA_OF_ASC_NODE":248.5167,"ARG_OF_PERICENTER":339.3619,"MEAN_ANOMALY":20.3212,"EPHEMERIS_TYPE":0,"CLASSIFICATION_TYPE":"U","NORAD_CAT_ID":50467,"ELEMENT_SET_NO":999,"REV_AT_EPOCH":22480,"BSTAR":0.00011572533,"MEAN_MOTION_DOT":6.56e-6,"MEAN_MOTION_DDOT":0}]
